ORBCOMM FM103 [+]       
1 40091U 14040F   23337.60413655  .00001421  00000+0  35659-3 0  9999
2 40091  47.0041 145.4299 0002439 230.7656 129.3012 14.56109913499260
ORBCOMM FM114 [+]       
1 41179U 15081A   23337.57048615  .00001434  00000+0  35937-3 0  9992
2 41179  47.0032  54.9274 0002661 280.1628  79.8956 14.56128523422563
ORBCOMM FM119 [-]       
1 41180U 15081B   23338.01857690  .00001285  00000+0  32623-3 0  9998
2 41180  47.0024 322.0102 0001861 332.6507  27.4280 14.56108366423883
ORBCOMM FM105 [-]       
1 41181U 15081C   23337.84409729  .00000796  00000+0  27572-3 0  9998
2 41181  47.0021 275.3764 0002441 316.0634  44.0051 14.44133138419694
ORBCOMM FM110 [+]       
1 41182U 15081D   23337.34165241  .00002135  00000+0  51662-3 0  9998
2 41182  47.0014  55.4253 0001060 141.8925 218.2034 14.56131057422400
ORBCOMM FM118 [+]       
1 41183U 15081E   23338.34811566  .00001602  00000+0  39699-3 0  9992
2 41183  47.0039  50.9612 0001201 146.1320 213.9642 14.56129780422734
ORBCOMM FM112 [+]       
1 41184U 15081F   23337.99664616  .00001645  00000+0  40688-3 0  9992
2 41184  46.9995 321.3627 0002111 319.7835  40.2893 14.56114720423878
ORBCOMM FM113 [+]       
1 41185U 15081G   23338.31616952  .00001326  00000+0  33555-3 0  9991
2 41185  47.0028 320.0899 0001591 337.5847  22.4968 14.56078114423924
